STARLINK-33736          
1 63450U 25069T   26068.52870548  .00038479  00000+0  13052-2 0  9994
2 63450  53.1605 142.9688 0001861  45.9569 314.1585 15.30184124 53332
KUIPER-00175            
1 67135U 25301C   26068.97960463  .00019968  00000+0  66732-3 0  9998
2 67135  51.8781  63.6978 0002279  50.5695 309.5490 15.30996371 13854
